$$SOE
2460714.500000000, A.D. 2025-Feb-08 00:00:00.0000, -1.260316579553997E+09, -6.363736797144979E+09, -3.126584828638177E+08,
2460721.500000000, A.D. 2025-Feb-15 00:00:00.0000, -1.257650850075293E+09, -6.364240841073447E+09, -3.129550489936843E+08,
2460728.500000000, A.D. 2025-Feb-22 00:00:00.0000, -1.254984906432475E+09, -6.364743845980328E+09, -3.132515589740605E+08,
2460735.500000000, A.D. 2025-Mar-01 00:00:00.0000, -1.252318746818085E+09, -6.365245811379598E+09, -3.135480129221764E+08,
2460742.500000000, A.D. 2025-Mar-08 00:00:00.0000, -1.249652368342742E+09, -6.365746736900911E+09, -3.138444111062360E+08,
2460749.500000000, A.D. 2025-Mar-15 00:00:00.0000, -1.246985767057392E+09, -6.366246620454112E+09, -3.141407537898855E+08,
2460756.500000000, A.D. 2025-Mar-22 00:00:00.0000, -1.244318940183694E+09, -6.366745457806654E+09, -3.144370409883037E+08,
2460763.500000000, A.D. 2025-Mar-29 00:00:00.0000, -1.241651886975091E+09, -6.367243244415747E+09, -3.147332725330577E+08,
2460770.500000000, A.D. 2025-Apr-05 00:00:00.0000, -1.238984607883308E+09, -6.367739976376760E+09, -3.150294482194004E+08,
2460777.500000000, A.D. 2025-Apr-12 00:00:00.0000, -1.236317103956228E+09, -6.368235650383725E+09, -3.153255678511157E+08,
2460784.500000000, A.D. 2025-Apr-19 00:00:00.0000, -1.233649376654333E+09, -6.368730263582959E+09, -3.156216312380915E+08,
2460791.500000000, A.D. 2025-Apr-26 00:00:00.0000, -1.230981427814073E+09, -6.369223813522564E+09, -3.159176381883693E+08,
2460798.500000000, A.D. 2025-May-03 00:00:00.0000, -1.228313259644469E+09, -6.369716298178176E+09, -3.162135885037646E+08,
2460805.500000000, A.D. 2025-May-10 00:00:00.0000, -1.225644874728361E+09, -6.370207716046011E+09, -3.165094819811449E+08,
2460812.500000000, A.D. 2025-May-17 00:00:00.0000, -1.222976275991577E+09, -6.370698066343867E+09, -3.168053184262323E+08,
2460819.500000000, A.D. 2025-May-24 00:00:00.0000, -1.220307466466099E+09, -6.371187349374303E+09, -3.171010977004113E+08,
2460826.500000000, A.D. 2025-May-31 00:00:00.0000, -1.217638448429447E+09, -6.371675566738739E+09, -3.173968198135104E+08,
2460833.500000000, A.D. 2025-Jun-07 00:00:00.0000, -1.214969222321232E+09, -6.372162720197470E+09, -3.176924849273343E+08,
2460840.500000000, A.D. 2025-Jun-14 00:00:00.0000, -1.212299787801421E+09, -6.372648809842249E+09, -3.179880931075830E+08,
2460847.500000000, A.D. 2025-Jun-21 00:00:00.0000, -1.209630145733553E+09, -6.373133834852629E+09, -3.182836442030430E+08,
2460854.500000000, A.D. 2025-Jun-28 00:00:00.0000, -1.206960297964712E+09, -6.373617795071181E+09, -3.185791379947648E+08,
2460861.500000000, A.D. 2025-Jul-05 00:00:00.0000, -1.204290246418967E+09, -6.374100691240971E+09, -3.188745742998056E+08,
2460868.500000000, A.D. 2025-Jul-12 00:00:00.0000, -1.201619992695293E+09, -6.374582524710498E+09, -3.191699529860754E+08,
2460875.500000000, A.D. 2025-Jul-19 00:00:00.0000, -1.198949537980396E+09, -6.375063297180994E+09, -3.194652739625797E+08,
2460882.500000000, A.D. 2025-Jul-26 00:00:00.0000, -1.196278883066503E+09, -6.375543010552526E+09, -3.197605371688728E+08,
2460889.500000000, A.D. 2025-Aug-02 00:00:00.0000, -1.193608028408755E+09, -6.376021666847057E+09, -3.200557425678296E+08,
2460896.500000000, A.D. 2025-Aug-09 00:00:00.0000, -1.190936974198753E+09, -6.376499268222916E+09, -3.203508901449323E+08,
2460903.500000000, A.D. 2025-Aug-16 00:00:00.0000, -1.188265720377341E+09, -6.376975817143593E+09, -3.206459799261398E+08,
2460910.500000000, A.D. 2025-Aug-23 00:00:00.0000, -1.185594266293979E+09, -6.377451316684132E+09, -3.209410120396008E+08,
2460917.500000000, A.D. 2025-Aug-30 00:00:00.0000, -1.182922609683790E+09, -6.377925770260796E+09, -3.212359867928085E+08,
2460924.500000000, A.D. 2025-Sep-06 00:00:00.0000, -1.180250746380395E+09, -6.378399179783615E+09, -3.215309045531349E+08,
2460931.500000000, A.D. 2025-Sep-13 00:00:00.0000, -1.177578672435291E+09, -6.378871544714454E+09, -3.218257654811354E+08,
2460938.500000000, A.D. 2025-Sep-20 00:00:00.0000, -1.174906385370544E+09, -6.379342863674924E+09, -3.221205695510139E+08,
2460945.500000000, A.D. 2025-Sep-27 00:00:00.0000, -1.172233883506257E+09, -6.379813135492404E+09, -3.224153167007971E+08,
2460952.500000000, A.D. 2025-Oct-04 00:00:00.0000, -1.169561165379484E+09, -6.380282359144742E+09, -3.227100068830404E+08,
2460959.500000000, A.D. 2025-Oct-11 00:00:00.0000, -1.166888229628267E+09, -6.380750533546465E+09, -3.230046400587320E+08,
2460966.500000000, A.D. 2025-Oct-18 00:00:00.0000, -1.164215075057114E+09, -6.381217657450674E+09, -3.232992161828032E+08,
2460973.500000000, A.D. 2025-Oct-25 00:00:00.0000, -1.161541700744396E+09, -6.381683729455242E+09, -3.235937351931810E+08,
2460980.500000000, A.D. 2025-Nov-01 00:00:00.0000, -1.158868106152255E+09, -6.382148748097469E+09, -3.238881970058270E+08,
2460987.500000000, A.D. 2025-Nov-08 00:00:00.0000, -1.156194291204515E+09, -6.382612712068130E+09, -3.241826015216589E+08,
2460994.500000000, A.D. 2025-Nov-15 00:00:00.0000, -1.153520256184779E+09, -6.383075620602998E+09, -3.244769486639137E+08,
2461001.500000000, A.D. 2025-Nov-22 00:00:00.0000, -1.150846001052094E+09, -6.383537473831309E+09, -3.247712384650769E+08,
2461008.500000000, A.D. 2025-Nov-29 00:00:00.0000, -1.148171524327431E+09, -6.383998271945717E+09, -3.250654710968304E+08,
2461015.500000000, A.D. 2025-Dec-06 00:00:00.0000, -1.145496823828473E+09, -6.384458013329350E+09, -3.253596466454053E+08,
2461022.500000000, A.D. 2025-Dec-13 00:00:00.0000, -1.142821898819075E+09, -6.384916695009958E+09, -3.256537649477501E+08,
2461029.500000000, A.D. 2025-Dec-20 00:00:00.0000, -1.140146750080267E+09, -6.385374314417635E+09, -3.259478257253709E+08,
2461036.500000000, A.D. 2025-Dec-27 00:00:00.0000, -1.137471378976593E+09, -6.385830869854368E+09, -3.262418287056994E+08,
2461043.500000000, A.D. 2026-Jan-03 00:00:00.0000, -1.134795786977026E+09, -6.386286360290446E+09, -3.265357736474328E+08,
2461050.500000000, A.D. 2026-Jan-10 00:00:00.0000, -1.132119975520694E+09, -6.386740785165920E+09, -3.268296603353906E+08,
2461057.500000000, A.D. 2026-Jan-17 00:00:00.0000, -1.129443945994847E+09, -6.387194144287902E+09, -3.271234885736265E+08,
2461064.500000000, A.D. 2026-Jan-24 00:00:00.0000, -1.126767699747143E+09, -6.387646437800104E+09, -3.274172581819949E+08,
2461071.500000000, A.D. 2026-Jan-31 00:00:00.0000, -1.124091238108764E+09, -6.388097666231147E+09, -3.277109689988298E+08,
2461078.500000000, A.D. 2026-Feb-07 00:00:00.0000, -1.121414562366886E+09, -6.388547830678023E+09, -3.280046208999443E+08,
2461085.500000000, A.D. 2026-Feb-14 00:00:00.0000, -1.118737673433414E+09, -6.388996933139127E+09, -3.282982138583150E+08,
2461092.500000000, A.D. 2026-Feb-21 00:00:00.0000, -1.116060570822435E+09, -6.389444976419064E+09, -3.285917480327196E+08,
2461099.500000000, A.D. 2026-Feb-28 00:00:00.0000, -1.113383252021227E+09, -6.389891962451094E+09, -3.288852236914916E+08,
2461106.500000000, A.D. 2026-Mar-07 00:00:00.0000, -1.110705714313369E+09, -6.390337890986893E+09, -3.291786409418383E+08,
2461113.500000000, A.D. 2026-Mar-14 00:00:00.0000, -1.108027956278245E+09, -6.390782760986138E+09, -3.294719997098813E+08,
2461120.500000000, A.D. 2026-Mar-21 00:00:00.0000, -1.105349977184062E+09, -6.391226571807939E+09, -3.297652998979888E+08,
2461127.500000000, A.D. 2026-Mar-28 00:00:00.0000, -1.102671776283770E+09, -6.391669323175376E+09, -3.300585414509287E+08,
2461134.500000000, A.D. 2026-Apr-04 00:00:00.0000, -1.099993352617620E+09, -6.392111014878804E+09, -3.303517243542280E+08,
2461141.500000000, A.D. 2026-Apr-11 00:00:00.0000, -1.097314705048415E+09, -6.392551646577904E+09, -3.306448486190763E+08,
2461148.500000000, A.D. 2026-Apr-18 00:00:00.0000, -1.094635832370076E+09, -6.392991217709151E+09, -3.309379142687583E+08,
2461155.500000000, A.D. 2026-Apr-25 00:00:00.0000, -1.091956733443427E+09, -6.393429727484060E+09, -3.312309213293867E+08,
2461162.500000000, A.D. 2026-May-02 00:00:00.0000, -1.089277407328205E+09, -6.393867175007789E+09, -3.315238698299999E+08,
2461169.500000000, A.D. 2026-May-09 00:00:00.0000, -1.086597853286292E+09, -6.394303559584347E+09, -3.318167598286872E+08,
2461176.500000000, A.D. 2026-May-16 00:00:00.0000, -1.083918070277848E+09, -6.394738881070024E+09, -3.321095914879832E+08,
2461183.500000000, A.D. 2026-May-23 00:00:00.0000, -1.081238055898231E+09, -6.395173139252664E+09, -3.324023651206493E+08,
2461190.500000000, A.D. 2026-May-30 00:00:00.0000, -1.078557806833943E+09, -6.395606331937148E+09, -3.326950809891019E+08,
2461197.500000000, A.D. 2026-Jun-06 00:00:00.0000, -1.075877321154800E+09, -6.396038455010660E+09, -3.329877390969772E+08,
2461204.500000000, A.D. 2026-Jun-13 00:00:00.0000, -1.073196598776320E+09, -6.396469504288757E+09, -3.332803392929311E+08,
2461211.500000000, A.D. 2026-Jun-20 00:00:00.0000, -1.070515640593333E+09, -6.396899476216100E+09, -3.335728814018040E+08,
2461218.500000000, A.D. 2026-Jun-27 00:00:00.0000, -1.067834447983186E+09, -6.397328367761671E+09, -3.338653652553940E+08,
2461225.500000000, A.D. 2026-Jul-04 00:00:00.0000, -1.065153022678641E+09, -6.397756176283348E+09, -3.341577906864362E+08,
2461232.500000000, A.D. 2026-Jul-11 00:00:00.0000, -1.062471366756566E+09, -6.398182899493681E+09, -3.344501575201292E+08,
2461239.500000000, A.D. 2026-Jul-18 00:00:00.0000, -1.059789482649700E+09, -6.398608535501073E+09, -3.347424655698719E+08,
2461246.500000000, A.D. 2026-Jul-25 00:00:00.0000, -1.057107373157080E+09, -6.399033082923598E+09, -3.350347146394787E+08,
2461253.500000000, A.D. 2026-Aug-01 00:00:00.0000, -1.054425041405052E+09, -6.399456541123489E+09, -3.353269045403724E+08,
2461260.500000000, A.D. 2026-Aug-08 00:00:00.0000, -1.051742490544031E+09, -6.399878910598096E+09, -3.356190351465888E+08,
2461267.500000000, A.D. 2026-Aug-15 00:00:00.0000, -1.049059722766037E+09, -6.400300193076803E+09, -3.359111064889054E+08,
2461274.500000000, A.D. 2026-Aug-22 00:00:00.0000, -1.046376738404175E+09, -6.400720390102489E+09, -3.362031187185707E+08,
$$EOE